CCSDS_OMM_VERS = 2.0
CREATION_DATE  = 
ORIGINATOR     = 

OBJECT_NAME    = SL-3 R/B
OBJECT_ID      = 1982-079B
CENTER_NAME    = EARTH
REF_FRAME      = TEME
TIME_SYSTEM    = UTC
MEAN_ELEMENT_THEORY = SGP/SGP4

EPOCH          = 2026-01-18T15:35:53.587392
MEAN_MOTION    = 15.24063229
ECCENTRICITY   = .00250461
INCLINATION    = 81.1453
RA_OF_ASC_NODE = 252.1396
ARG_OF_PERICENTER = 338.1657
MEAN_ANOMALY   = 21.8506

EPHEMERIS_TYPE = 0
CLASSIFICATION_TYPE = U
NORAD_CAT_ID   = 13403
ELEMENT_SET_NO = 999
REV_AT_EPOCH   = 37007
BSTAR          = .21738274E-3
MEAN_MOTION_DOT = .5346E-4
MEAN_MOTION_DDOT = 0

CCSDS_OMM_VERS = 2.0
CREATION_DATE  = 
ORIGINATOR     = 

OBJECT_NAME    = SL-14 R/B
OBJECT_ID      = 1982-092B
CENTER_NAME    = EARTH
REF_FRAME      = TEME
TIME_SYSTEM    = UTC
MEAN_ELEMENT_THEORY = SGP/SGP4

EPOCH          = 2026-01-18T11:57:06.887232
MEAN_MOTION    = 14.86597316
ECCENTRICITY   = .00218034
INCLINATION    = 82.5675
RA_OF_ASC_NODE = 188.3323
ARG_OF_PERICENTER = 106.6229
MEAN_ANOMALY   = 307.4426

EPHEMERIS_TYPE = 0
CLASSIFICATION_TYPE = U
NORAD_CAT_ID   = 13553
ELEMENT_SET_NO = 999
REV_AT_EPOCH   = 32147
BSTAR          = .52732798E-4
MEAN_MOTION_DOT = .494E-5
MEAN_MOTION_DDOT = 0

CCSDS_OMM_VERS = 2.0
CREATION_DATE  = 
ORIGINATOR     = 

OBJECT_NAME    = SL-3 R/B
OBJECT_ID      = 1983-010B
CENTER_NAME    = EARTH
REF_FRAME      = TEME
TIME_SYSTEM    = UTC
MEAN_ELEMENT_THEORY = SGP/SGP4

EPOCH          = 2026-01-18T13:58:20.803008
MEAN_MOTION    = 15.44555007
ECCENTRICITY   = .00164332
INCLINATION    = 81.1026
RA_OF_ASC_NODE = 63.6077
ARG_OF_PERICENTER = 217.5181
MEAN_ANOMALY   = 142.4917

EPHEMERIS_TYPE = 0
CLASSIFICATION_TYPE = U
NORAD_CAT_ID   = 13819
ELEMENT_SET_NO = 999
REV_AT_EPOCH   = 35020
BSTAR          = .2522426E-3
MEAN_MOTION_DOT = .11804E-3
MEAN_MOTION_DDOT = 0

CCSDS_OMM_VERS = 2.0
CREATION_DATE  = 
ORIGINATOR     = 

OBJECT_NAME    = SL-3 R/B
OBJECT_ID      = 1983-075B
CENTER_NAME    = EARTH
REF_FRAME      = TEME
TIME_SYSTEM    = UTC
MEAN_ELEMENT_THEORY = SGP/SGP4

EPOCH          = 2026-01-18T13:57:14.771808
MEAN_MOTION    = 15.36992695
ECCENTRICITY   = .00240471
INCLINATION    = 97.6111
RA_OF_ASC_NODE = 21.3274
ARG_OF_PERICENTER = 52.2434
MEAN_ANOMALY   = 308.0983

EPHEMERIS_TYPE = 0
CLASSIFICATION_TYPE = U
NORAD_CAT_ID   = 14208
ELEMENT_SET_NO = 999
REV_AT_EPOCH   = 32245
BSTAR          = .28092344E-3
MEAN_MOTION_DOT = .10178E-3
MEAN_MOTION_DDOT = 0

CCSDS_OMM_VERS = 2.0
CREATION_DATE  = 
ORIGINATOR     = 

OBJECT_NAME    = COSMOS 1536
OBJECT_ID      = 1984-013A
CENTER_NAME    = EARTH
REF_FRAME      = TEME
TIME_SYSTEM    = UTC
MEAN_ELEMENT_THEORY = SGP/SGP4

EPOCH          = 2026-01-18T09:47:05.086464
MEAN_MOTION    = 15.23042203
ECCENTRICITY   = .00157705
INCLINATION    = 82.5466
RA_OF_ASC_NODE = 157.7867
ARG_OF_PERICENTER = 99.2194
MEAN_ANOMALY   = 261.0827

EPHEMERIS_TYPE = 0
CLASSIFICATION_TYPE = U
NORAD_CAT_ID   = 14699
ELEMENT_SET_NO = 999
REV_AT_EPOCH   = 26496
BSTAR          = .26797212E-3
MEAN_MOTION_DOT = .6361E-4
MEAN_MOTION_DDOT = 0

CCSDS_OMM_VERS = 2.0
CREATION_DATE  = 
ORIGINATOR     = 

OBJECT_NAME    = SL-14 R/B
OBJECT_ID      = 1984-027B
CENTER_NAME    = EARTH
REF_FRAME      = TEME
TIME_SYSTEM    = UTC
MEAN_ELEMENT_THEORY = SGP/SGP4

EPOCH          = 2026-01-18T11:00:15.646752
MEAN_MOTION    = 14.85917861
ECCENTRICITY   = .00189771
INCLINATION    = 82.5430
RA_OF_ASC_NODE = 292.1263
ARG_OF_PERICENTER = 136.1624
MEAN_ANOMALY   = 224.1103

EPHEMERIS_TYPE = 0
CLASSIFICATION_TYPE = U
NORAD_CAT_ID   = 14820
ELEMENT_SET_NO = 999
REV_AT_EPOCH   = 24017
BSTAR          = .44642651E-4
MEAN_MOTION_DOT = .415E-5
MEAN_MOTION_DDOT = 0

CCSDS_OMM_VERS = 2.0
CREATION_DATE  = 
ORIGINATOR     = 

OBJECT_NAME    = SL-8 R/B
OBJECT_ID      = 1985-006B
CENTER_NAME    = EARTH
REF_FRAME      = TEME
TIME_SYSTEM    = UTC
MEAN_ELEMENT_THEORY = SGP/SGP4

EPOCH          = 2026-01-18T15:38:08.374848
MEAN_MOTION    = 14.37748240
ECCENTRICITY   = .00197937
INCLINATION    = 74.0467
RA_OF_ASC_NODE = 353.2179
ARG_OF_PERICENTER = 279.4546
MEAN_ANOMALY   = 254.0464

EPHEMERIS_TYPE = 0
CLASSIFICATION_TYPE = U
NORAD_CAT_ID   = 15483
ELEMENT_SET_NO = 999
REV_AT_EPOCH   = 14683
BSTAR          = .97685645E-4
MEAN_MOTION_DOT = .268E-5
MEAN_MOTION_DDOT = 0

CCSDS_OMM_VERS = 2.0
CREATION_DATE  = 
ORIGINATOR     = 

OBJECT_NAME    = SL-12 R/B(2)
OBJECT_ID      = 1985-042D
CENTER_NAME    = EARTH
REF_FRAME      = TEME
TIME_SYSTEM    = UTC
MEAN_ELEMENT_THEORY = SGP/SGP4

EPOCH          = 2026-01-18T14:36:13.472928
MEAN_MOTION    = 14.21963163
ECCENTRICITY   = .00362216
INCLINATION    = 71.1065
RA_OF_ASC_NODE = 193.5310
ARG_OF_PERICENTER = 206.9321
MEAN_ANOMALY   = 218.0741

EPHEMERIS_TYPE = 0
CLASSIFICATION_TYPE = U
NORAD_CAT_ID   = 15772
ELEMENT_SET_NO = 999
REV_AT_EPOCH   = 10727
BSTAR          = .69331585E-4
MEAN_MOTION_DOT = .106E-5
MEAN_MOTION_DDOT = 0

CCSDS_OMM_VERS = 2.0
CREATION_DATE  = 
ORIGINATOR     = 

OBJECT_NAME    = SL-14 R/B
OBJECT_ID      = 1985-069B
CENTER_NAME    = EARTH
REF_FRAME      = TEME
TIME_SYSTEM    = UTC
MEAN_ELEMENT_THEORY = SGP/SGP4

EPOCH          = 2026-01-18T14:14:10.888512
MEAN_MOTION    = 14.86367675
ECCENTRICITY   = .00187993
INCLINATION    = 82.5249
RA_OF_ASC_NODE = 72.0534
ARG_OF_PERICENTER = 3.3041
MEAN_ANOMALY   = 356.8296

EPHEMERIS_TYPE = 0
CLASSIFICATION_TYPE = U
NORAD_CAT_ID   = 15945
ELEMENT_SET_NO = 999
REV_AT_EPOCH   = 16539
BSTAR          = .42711812E-4
MEAN_MOTION_DOT = .402E-5
MEAN_MOTION_DDOT = 0

CCSDS_OMM_VERS = 2.0
CREATION_DATE  = 
ORIGINATOR     = 

OBJECT_NAME    = SL-16 R/B
OBJECT_ID      = 1985-097B
CENTER_NAME    = EARTH
REF_FRAME      = TEME
TIME_SYSTEM    = UTC
MEAN_ELEMENT_THEORY = SGP/SGP4

EPOCH          = 2026-01-18T09:06:00.159264
MEAN_MOTION    = 14.16591651
ECCENTRICITY   = .00088605
INCLINATION    = 71.0012
RA_OF_ASC_NODE = 246.4689
ARG_OF_PERICENTER = 319.0436
MEAN_ANOMALY   = 214.2710

EPHEMERIS_TYPE = 0
CLASSIFICATION_TYPE = U
NORAD_CAT_ID   = 16182
ELEMENT_SET_NO = 999
REV_AT_EPOCH   = 8010
BSTAR          = -.80360377E-4
MEAN_MOTION_DOT = -.208E-5
MEAN_MOTION_DDOT = 0

CCSDS_OMM_VERS = 2.0
CREATION_DATE  = 
ORIGINATOR     = 

OBJECT_NAME    = SL-14 R/B
OBJECT_ID      = 1986-006B
CENTER_NAME    = EARTH
REF_FRAME      = TEME
TIME_SYSTEM    = UTC
MEAN_ELEMENT_THEORY = SGP/SGP4

EPOCH          = 2026-01-18T12:22:52.591872
MEAN_MOTION    = 14.86725835
ECCENTRICITY   = .00782592
INCLINATION    = 82.5289
RA_OF_ASC_NODE = 306.9520
ARG_OF_PERICENTER = 79.2094
MEAN_ANOMALY   = 281.7919

EPHEMERIS_TYPE = 0
CLASSIFICATION_TYPE = U
NORAD_CAT_ID   = 16496
ELEMENT_SET_NO = 999
REV_AT_EPOCH   = 14175
BSTAR          = .65164106E-4
MEAN_MOTION_DOT = .641E-5
MEAN_MOTION_DDOT = 0

CCSDS_OMM_VERS = 2.0
CREATION_DATE  = 
ORIGINATOR     = 

OBJECT_NAME    = COSMOS 1743
OBJECT_ID      = 1986-034A
CENTER_NAME    = EARTH
REF_FRAME      = TEME
TIME_SYSTEM    = UTC
MEAN_ELEMENT_THEORY = SGP/SGP4

EPOCH          = 2026-01-18T08:57:37.135008
MEAN_MOTION    = 15.54616959
ECCENTRICITY   = .00054133
INCLINATION    = 82.5366
RA_OF_ASC_NODE = 126.4741
ARG_OF_PERICENTER = 117.0310
MEAN_ANOMALY   = 243.1497

EPHEMERIS_TYPE = 0
CLASSIFICATION_TYPE = U
NORAD_CAT_ID   = 16719
ELEMENT_SET_NO = 999
REV_AT_EPOCH   = 17242
BSTAR          = .51589475E-3
MEAN_MOTION_DOT = .34241E-3
MEAN_MOTION_DDOT = 0

