SL-3 R/B                
1 13403U 82079B   26018.64992578  .00005346  00000+0  21738-3 0  9995
2 13403  81.1453 252.1396 0025046 338.1657  21.8506 15.24063229370076
SL-14 R/B               
1 13553U 82092B   26018.49799638  .00000494  00000+0  52733-4 0  9990
2 13553  82.5675 188.3323 0021803 106.6229 307.4426 14.86597316321473
SL-3 R/B                
1 13819U 83010B   26018.58218522  .00011804  00000+0  25224-3 0  9995
2 13819  81.1026  63.6077 0016433 217.5181 142.4917 15.44555007350207
SL-3 R/B                
1 14208U 83075B   26018.58142097  .00010178  00000+0  28092-3 0  9991
2 14208  97.6111  21.3274 0024047  52.2434 308.0983 15.36992695322450
COSMOS 1536             
1 14699U 84013A   26018.40769776  .00006361  00000+0  26797-3 0  9997
2 14699  82.5466 157.7867 0015770  99.2194 261.0827 15.23042203264962
SL-14 R/B               
1 14820U 84027B   26018.45851443  .00000415  00000+0  44643-4 0  9991
2 14820  82.5430 292.1263 0018977 136.1624 224.1103 14.85917861240176
SL-8 R/B                
1 15483U 85006B   26018.65148582  .00000268  00000+0  97686-4 0  9991
2 15483  74.0467 353.2179 0019793 279.4546 254.0464 14.37748240146834
SL-12 R/B(2)            
1 15772U 85042D   26018.60848927  .00000106  00000+0  69332-4 0  9995
2 15772  71.1065 193.5310 0036221 206.9321 218.0741 14.21963163107279
SL-14 R/B               
1 15945U 85069B   26018.59318158  .00000402  00000+0  42712-4 0  9994
2 15945  82.5249  72.0534 0018799   3.3041 356.8296 14.86367675165398
SL-16 R/B               
1 16182U 85097B   26018.37916851 -.00000208  00000+0 -80360-4 0  9996
2 16182  71.0012 246.4689 0008860 319.0436 214.2710 14.16591651 80103
SL-14 R/B               
1 16496U 86006B   26018.51588648  .00000641  00000+0  65164-4 0  9994
2 16496  82.5289 306.9520 0078259  79.2094 281.7919 14.86725835141753
COSMOS 1743             
1 16719U 86034A   26018.37334647  .00034241  00000+0  51589-3 0  9993
2 16719  82.5366 126.4741 0005413 117.0310 243.1497 15.54616959172424
